[{"OBJECT_NAME":"STARLINK-34413","OBJECT_ID":"2025-137Y","EPOCH":"2026-03-09T23:17:06.295200","MEAN_MOTION":15.30212684,"ECCENTRICITY":0.00012505,"INCLINATION":53.1569,"RA_OF_ASC_NODE":334.2311,"ARG_OF_PERICENTER":126.908,"MEAN_ANOMALY":233.2035,"EPHEMERIS_TYPE":0,"CLASSIFICATION_TYPE":"U","NORAD_CAT_ID":64616,"ELEMENT_SET_NO":999,"REV_AT_EPOCH":4087,"BSTAR":0.00097160089,"MEAN_MOTION_DOT":0.00028539,"MEAN_MOTION_DDOT":0},{"OBJECT_NAME":"ELECTRON KICK STAGE R\/B","OBJECT_ID":"2025-061J","EPOCH":"2026-03-09T21:50:35.145600","MEAN_MOTION":15.31602074,"ECCENTRICITY":0.00402669,"INCLINATION":97.5479,"RA_OF_ASC_NODE":52.3854,"ARG_OF_PERICENTER":150.2628,"MEAN_ANOMALY":210.0914,"EPHEMERIS_TYPE":0,"CLASSIFICATION_TYPE":"U","NORAD_CAT_ID":63359,"ELEMENT_SET_NO":999,"REV_AT_EPOCH":5306,"BSTAR":0.0006963674,"MEAN_MOTION_DOT":0.00021749,"MEAN_MOTION_DDOT":0}]
